CCSDS_OMM_VERS = 2.0
CREATION_DATE  = 
ORIGINATOR     = 

OBJECT_NAME    = HULIANWANG DIGUI-153
OBJECT_ID      = 2026-013H
CENTER_NAME    = EARTH
REF_FRAME      = TEME
TIME_SYSTEM    = UTC
MEAN_ELEMENT_THEORY = SGP/SGP4

EPOCH          = 2026-01-21T10:36:05.463360
MEAN_MOTION    = 13.98470310
ECCENTRICITY   = .00088557
INCLINATION    = 50.0011
RA_OF_ASC_NODE = 176.6007
ARG_OF_PERICENTER = 242.1618
MEAN_ANOMALY   = 117.8388

EPHEMERIS_TYPE = 0
CLASSIFICATION_TYPE = U
NORAD_CAT_ID   = 67529
ELEMENT_SET_NO = 999
REV_AT_EPOCH   = 29
BSTAR          = .31746968E-4
MEAN_MOTION_DOT = -.104E-5
MEAN_MOTION_DDOT = 0

CCSDS_OMM_VERS = 2.0
CREATION_DATE  = 
ORIGINATOR     = 

OBJECT_NAME    = HULIANWANG DIGUI-154
OBJECT_ID      = 2026-013J
CENTER_NAME    = EARTH
REF_FRAME      = TEME
TIME_SYSTEM    = UTC
MEAN_ELEMENT_THEORY = SGP/SGP4

EPOCH          = 2026-01-21T05:27:11.749248
MEAN_MOTION    = 13.98568419
ECCENTRICITY   = .0008317
INCLINATION    = 50.0045
RA_OF_ASC_NODE = 177.4718
ARG_OF_PERICENTER = 246.2151
MEAN_ANOMALY   = 113.7880

EPHEMERIS_TYPE = 0
CLASSIFICATION_TYPE = U
NORAD_CAT_ID   = 67530
ELEMENT_SET_NO = 999
REV_AT_EPOCH   = 26
BSTAR          = .98151301E-4
MEAN_MOTION_DOT = -.8E-7
MEAN_MOTION_DDOT = 0

CCSDS_OMM_VERS = 2.0
CREATION_DATE  = 
ORIGINATOR     = 

OBJECT_NAME    = CZ-12 R/B
OBJECT_ID      = 2026-013K
CENTER_NAME    = EARTH
REF_FRAME      = TEME
TIME_SYSTEM    = UTC
MEAN_ELEMENT_THEORY = SGP/SGP4

EPOCH          = 2026-01-23T16:17:56.453568
MEAN_MOTION    = 14.14451189
ECCENTRICITY   = .00690383
INCLINATION    = 49.9898
RA_OF_ASC_NODE = 167.1520
ARG_OF_PERICENTER = 142.9302
MEAN_ANOMALY   = 217.6404

EPHEMERIS_TYPE = 0
CLASSIFICATION_TYPE = U
NORAD_CAT_ID   = 67531
ELEMENT_SET_NO = 999
REV_AT_EPOCH   = 61
BSTAR          = .11966013E-3
MEAN_MOTION_DOT = .8E-6
MEAN_MOTION_DDOT = 0

